start=new Date('2022-03-25T00:00:00.000Z').valueOf();
sats=[{"FILE":"3373054","GP_ID":"199624047","REV_AT_EPOCH":"370","MEAN_MOTION_DDOT":"0.0000000000000","EPOCH":"2022-03-24T22:00:00.999936","TLE_LINE1":"1 51116U 22005N   22083.91667824  .00025900  00000-0  18861-3 0  9994","TLE_LINE2":"2 51116  53.2126 313.4628 0003193  20.7705 170.8867 15.73168969  3701","ELEMENT_SET_NO":"999","APOAPSIS":"351.997","SITE":"AFETR","MEAN_ANOMALY":"170.8867","NORAD_CAT_ID":"51116","TIME_SYSTEM":"UTC","DECAY_DATE":null,"MEAN_ELEMENT_THEORY":"SGP4","OBJECT_ID":"2022-005N","BSTAR":"0.00018861000000","REF_FRAME":"TEME","OBJECT_TYPE":"PAYLOAD","PERIAPSIS":"347.700","ECCENTRICITY":"0.00031930","RA_OF_ASC_NODE":"313.4628","PERIOD":"91.535","CLASSIFICATION_TYPE":"U","LAUNCH_DATE":"2022-01-19","EPHEMERIS_TYPE":"0","COUNTRY_CODE":"US","ARG_OF_PERICENTER":"20.7705","MEAN_MOTION":"15.73168969","INCLINATION":"53.2126","OBJECT_NAME":"STARLINK-3243","RCS_SIZE":"LARGE","MEAN_MOTION_DOT":"0.00025900","CENTER_NAME":"EARTH","SEMIMAJOR_AXIS":"6727.984"},{"SITE":"AFETR","APOAPSIS":"352.119","MEAN_ANOMALY":"184.4818","NORAD_CAT_ID":"51117","TIME_SYSTEM":"UTC","DECAY_DATE":null,"MEAN_ELEMENT_THEORY":"SGP4","OBJECT_ID":"2022-005P","BSTAR":"0.00019961000000","REF_FRAME":"TEME","FILE":"3373054","GP_ID":"199623826","REV_AT_EPOCH":"370","MEAN_MOTION_DDOT":"0.0000000000000","EPOCH":"2022-03-24T22:00:00.999936","TLE_LINE1":"1 51117U 22005P   22083.91667824  .00027468  00000-0  19961-3 0  9998","TLE_LINE2":"2 51117  53.2145 313.4521 0003428  12.1811 184.4818 15.73181519  3702","ELEMENT_SET_NO":"999","OBJECT_NAME":"STARLINK-3391","MEAN_MOTION_DOT":"0.00027468","RCS_SIZE":"LARGE","CENTER_NAME":"EARTH","SEMIMAJOR_AXIS":"6727.948","ECCENTRICITY":"0.00034280","OBJECT_TYPE":"PAYLOAD","PERIAPSIS":"347.507","PERIOD":"91.534","RA_OF_ASC_NODE":"313.4521","CLASSIFICATION_TYPE":"U","LAUNCH_DATE":"2022-01-19","EPHEMERIS_TYPE":"0","COUNTRY_CODE":"US","ARG_OF_PERICENTER":"12.1811","MEAN_MOTION":"15.73181519","INCLINATION":"53.2145"},{"COUNTRY_CODE":"US","EPHEMERIS_TYPE":"0","LAUNCH_DATE":"2022-01-19","MEAN_MOTION":"15.73187520","INCLINATION":"53.2135","ARG_OF_PERICENTER":"7.4053","RA_OF_ASC_NODE":"313.4567","PERIOD":"91.534","OBJECT_TYPE":"PAYLOAD","ECCENTRICITY":"0.00037450","PERIAPSIS":"347.276","CLASSIFICATION_TYPE":"U","SEMIMAJOR_AXIS":"6727.931","CENTER_NAME":"EARTH","OBJECT_NAME":"STARLINK-3394","RCS_SIZE":"LARGE","MEAN_MOTION_DOT":"-0.00066688","TLE_LINE1":"1 51118U 22005Q   22083.91667824 -.00066688  00000-0 -47452-3 0  9994","TLE_LINE2":"2 51118  53.2135 313.4567 0003745   7.4053 186.1406 15.73187520  3709","EPOCH":"2022-03-24T22:00:00.999936","ELEMENT_SET_NO":"999","GP_ID":"199623937","FILE":"3373054","MEAN_MOTION_DDOT":"0.0000000000000","REV_AT_EPOCH":"370","TIME_SYSTEM":"UTC","DECAY_DATE":null,"REF_FRAME":"TEME","MEAN_ELEMENT_THEORY":"SGP4","OBJECT_ID":"2022-005Q","BSTAR":"-0.00047452000000","SITE":"AFETR","APOAPSIS":"352.315","NORAD_CAT_ID":"51118","MEAN_ANOMALY":"186.1406"},{"OBJECT_TYPE":"PAYLOAD","ECCENTRICITY":"0.00029990","PERIAPSIS":"347.801","RA_OF_ASC_NODE":"313.0386","PERIOD":"91.534","CLASSIFICATION_TYPE":"U","LAUNCH_DATE":"2022-01-19","EPHEMERIS_TYPE":"0","COUNTRY_CODE":"US","ARG_OF_PERICENTER":"8.9065","INCLINATION":"53.2135","MEAN_MOTION":"15.73179411","OBJECT_NAME":"STARLINK-3390","RCS_SIZE":"LARGE","MEAN_MOTION_DOT":"-0.00005051","CENTER_NAME":"EARTH","SEMIMAJOR_AXIS":"6727.954","FILE":"3372971","GP_ID":"199596989","REV_AT_EPOCH":"1154","MEAN_MOTION_DDOT":"0.0000000000000","EPOCH":"2022-03-25T00:00:02.000160","TLE_LINE2":"2 51119  53.2135 313.0386 0002999   8.9065 300.7108 15.73179411 11548","TLE_LINE1":"1 51119U 22005R   22084.00002315 -.00005051  00000-0 -31591-4 0  9999","ELEMENT_SET_NO":"999","APOAPSIS":"351.837","SITE":"AFETR","MEAN_ANOMALY":"300.7108","NORAD_CAT_ID":"51119","DECAY_DATE":null,"TIME_SYSTEM":"UTC","BSTAR":"-0.00003159100000","OBJECT_ID":"2022-005R","MEAN_ELEMENT_THEORY":"SGP4","REF_FRAME":"TEME"},{"LAUNCH_DATE":"2022-01-19","EPHEMERIS_TYPE":"0","COUNTRY_CODE":"US","ARG_OF_PERICENTER":"10.6399","MEAN_MOTION":"15.73286680","INCLINATION":"53.2146","ECCENTRICITY":"0.00031800","OBJECT_TYPE":"PAYLOAD","PERIAPSIS":"347.374","PERIOD":"91.528","RA_OF_ASC_NODE":"313.4490","CLASSIFICATION_TYPE":"U","CENTER_NAME":"EARTH","SEMIMAJOR_AXIS":"6727.648","OBJECT_NAME":"STARLINK-3398","RCS_SIZE":"LARGE","MEAN_MOTION_DOT":"-0.00071222","EPOCH":"2022-03-24T22:00:00.999936","TLE_LINE1":"1 51120U 22005S   22083.91667824 -.00071222  00000-0 -50527-3 0  9994","TLE_LINE2":"2 51120  53.2146 313.4490 0003180  10.6399 187.7851 15.73286680  3709","ELEMENT_SET_NO":"999","FILE":"3373054","GP_ID":"199623717","REV_AT_EPOCH":"370","MEAN_MOTION_DDOT":"0.0000000000000","TIME_SYSTEM":"UTC","DECAY_DATE":null,"MEAN_ELEMENT_THEORY":"SGP4","OBJECT_ID":"2022-005S","BSTAR":"-0.00050527000000","REF_FRAME":"TEME","SITE":"AFETR","APOAPSIS":"351.652","MEAN_ANOMALY":"187.7851","NORAD_CAT_ID":"51120"},{"EPOCH":"2022-03-24T22:00:00.999936","TLE_LINE2":"2 51121  53.2145 313.4533 0003709   8.9293 187.1448 15.73180957  3703","TLE_LINE1":"1 51121U 22005T   22083.91667824  .00029542  00000-0  21429-3 0  9990","ELEMENT_SET_NO":"999","FILE":"3373054","GP_ID":"199623497","REV_AT_EPOCH":"370","MEAN_MOTION_DDOT":"0.0000000000000","DECAY_DATE":null,"TIME_SYSTEM":"UTC","BSTAR":"0.00021429000000","MEAN_ELEMENT_THEORY":"SGP4","OBJECT_ID":"2022-005T","REF_FRAME":"TEME","SITE":"AFETR","APOAPSIS":"352.310","MEAN_ANOMALY":"187.1448","NORAD_CAT_ID":"51121","LAUNCH_DATE":"2022-01-19","EPHEMERIS_TYPE":"0","COUNTRY_CODE":"US","ARG_OF_PERICENTER":"8.9293","INCLINATION":"53.2145","MEAN_MOTION":"15.73180957","OBJECT_TYPE":"PAYLOAD","PERIAPSIS":"347.319","ECCENTRICITY":"0.00037090","RA_OF_ASC_NODE":"313.4533","PERIOD":"91.534","CLASSIFICATION_TYPE":"U","CENTER_NAME":"EARTH","SEMIMAJOR_AXIS":"6727.949","OBJECT_NAME":"STARLINK-3399","MEAN_MOTION_DOT":"0.00029542","RCS_SIZE":"LARGE"},{"EPOCH":"2022-03-24T22:00:00.999936","TLE_LINE2":"2 51122  53.2143 313.4498 0003131  15.6389 182.2576 15.73178524  3707","TLE_LINE1":"1 51122U 22005U   22083.91667824  .00026443  00000-0  19238-3 0  9993","ELEMENT_SET_NO":"999","FILE":"3373054","GP_ID":"199623607","REV_AT_EPOCH":"370","MEAN_MOTION_DDOT":"0.0000000000000","DECAY_DATE":null,"TIME_SYSTEM":"UTC","BSTAR":"0.00019238000000","MEAN_ELEMENT_THEORY":"SGP4","OBJECT_ID":"2022-005U","REF_FRAME":"TEME","APOAPSIS":"351.928","SITE":"AFETR","MEAN_ANOMALY":"182.2576","NORAD_CAT_ID":"51122","LAUNCH_DATE":"2022-01-19","COUNTRY_CODE":"US","EPHEMERIS_TYPE":"0","ARG_OF_PERICENTER":"15.6389","INCLINATION":"53.2143","MEAN_MOTION":"15.73178524","OBJECT_TYPE":"PAYLOAD","PERIAPSIS":"347.715","ECCENTRICITY":"0.00031310","RA_OF_ASC_NODE":"313.4498","PERIOD":"91.534","CLASSIFICATION_TYPE":"U","CENTER_NAME":"EARTH","SEMIMAJOR_AXIS":"6727.956","OBJECT_NAME":"STARLINK-3373","RCS_SIZE":"LARGE","MEAN_MOTION_DOT":"0.00026443"},{"CLASSIFICATION_TYPE":"U","RA_OF_ASC_NODE":"313.4469","PERIOD":"91.535","OBJECT_TYPE":"PAYLOAD","ECCENTRICITY":"0.00034810","PERIAPSIS":"347.499","MEAN_MOTION":"15.73171706","INCLINATION":"53.2147","ARG_OF_PERICENTER":"12.5580","EPHEMERIS_TYPE":"0","COUNTRY_CODE":"US","LAUNCH_DATE":"2022-01-19","MEAN_MOTION_DOT":"0.00026104","RCS_SIZE":"LARGE","OBJECT_NAME":"STARLINK-3392","SEMIMAJOR_AXIS":"6727.976","CENTER_NAME":"EARTH","MEAN_MOTION_DDOT":"0.0000000000000","REV_AT_EPOCH":"370","GP_ID":"199624158","FILE":"3373054","ELEMENT_SET_NO":"999","TLE_LINE1":"1 51123U 22005V   22083.91667824  .00026104  00000-0  19003-3 0  9998","TLE_LINE2":"2 51123  53.2147 313.4469 0003481  12.5580 186.6585 15.73171706  3700","EPOCH":"2022-03-24T22:00:00.999936","NORAD_CAT_ID":"51123","MEAN_ANOMALY":"186.6585","SITE":"AFETR","APOAPSIS":"352.183","REF_FRAME":"TEME","OBJECT_ID":"2022-005V","MEAN_ELEMENT_THEORY":"SGP4","BSTAR":"0.00019003000000","TIME_SYSTEM":"UTC","DECAY_DATE":null},{"COUNTRY_CODE":"US","EPHEMERIS_TYPE":"0","LAUNCH_DATE":"2022-01-19","INCLINATION":"53.2174","MEAN_MOTION":"15.49820097","ARG_OF_PERICENTER":"55.8920","RA_OF_ASC_NODE":"314.8254","PERIOD":"92.914","OBJECT_TYPE":"PAYLOAD","ECCENTRICITY":"0.00014380","PERIAPSIS":"416.277","CLASSIFICATION_TYPE":"U","SEMIMAJOR_AXIS":"6795.389","CENTER_NAME":"EARTH","OBJECT_NAME":"STARLINK-3389","MEAN_MOTION_DOT":"-0.00722690","RCS_SIZE":"LARGE","TLE_LINE2":"2 51124  53.2174 314.8254 0001438  55.8920 219.1971 15.49820097  3748","TLE_LINE1":"1 51124U 22005W   22083.91667824 -.00722690  00000-0 -13784-1 0  9992","EPOCH":"2022-03-24T22:00:00.999936","ELEMENT_SET_NO":"999","GP_ID":"199624048","FILE":"3373054","MEAN_MOTION_DDOT":"0.0000000000000","REV_AT_EPOCH":"374","DECAY_DATE":null,"TIME_SYSTEM":"UTC","REF_FRAME":"TEME","BSTAR":"-0.01378400000000","MEAN_ELEMENT_THEORY":"SGP4","OBJECT_ID":"2022-005W","SITE":"AFETR","APOAPSIS":"418.231","NORAD_CAT_ID":"51124","MEAN_ANOMALY":"219.1971"},{"SITE":"AFETR","APOAPSIS":"420.569","NORAD_CAT_ID":"51125","MEAN_ANOMALY":"120.5089","TIME_SYSTEM":"UTC","DECAY_DATE":null,"REF_FRAME":"TEME","MEAN_ELEMENT_THEORY":"SGP4","OBJECT_ID":"2022-005X","BSTAR":"0.00085005000000","GP_ID":"199623827","FILE":"3373054","MEAN_MOTION_DDOT":"0.0000000000000","REV_AT_EPOCH":"370","TLE_LINE1":"1 51125U 22005X   22083.91667824  .00046756  00000-0  85005-3 0  9990","TLE_LINE2":"2 51125  53.2148 314.8365 0001760  43.9222 120.5089 15.49095567  3701","EPOCH":"2022-03-24T22:00:00.999936","ELEMENT_SET_NO":"999","OBJECT_NAME":"STARLINK-3387","RCS_SIZE":"LARGE","MEAN_MOTION_DOT":"0.00046756","SEMIMAJOR_AXIS":"6797.508","CENTER_NAME":"EARTH","RA_OF_ASC_NODE":"314.8365","PERIOD":"92.957","OBJECT_TYPE":"PAYLOAD","PERIAPSIS":"418.176","ECCENTRICITY":"0.00017600","CLASSIFICATION_TYPE":"U","EPHEMERIS_TYPE":"0","COUNTRY_CODE":"US","LAUNCH_DATE":"2022-01-19","MEAN_MOTION":"15.49095567","INCLINATION":"53.2148","ARG_OF_PERICENTER":"43.9222"}];
